start=new Date('2021-09-18T00:00:00.000Z').valueOf();
sats=[{"RCS_SIZE":"LARGE","PERIOD":"95.592","INCLINATION":"53.0545","APOAPSIS":"548.543","FILE":"3118116","OBJECT_ID":"2020-074W","BSTAR":"0.00005980700000","LAUNCH_DATE":"2020-10-24","MEAN_MOTION_DOT":"0.00000609","COUNTRY_CODE":"US","CLASSIFICATION_TYPE":"U","MEAN_MOTION":"15.06396606","NORAD_CAT_ID":"46759","DECAY_DATE":null,"OBJECT_TYPE":"PAYLOAD","TLE_LINE1":"1 46759U 20074W   21260.86168578  .00000609  00000-0  59807-4 0  9992","EPOCH":"2021-09-17T20:40:49.651392","OBJECT_NAME":"STARLINK-1833","TIME_SYSTEM":"UTC","RA_OF_ASC_NODE":"111.1455","ARG_OF_PERICENTER":"93.6373","CENTER_NAME":"EARTH","GP_ID":"184912321","REF_FRAME":"TEME","TLE_LINE2":"2 46759  53.0545 111.1455 0001904  93.6373 266.4833 15.06396606 50209","SITE":"AFETR","ELEMENT_SET_NO":"999","ECCENTRICITY":"0.00019040","MEAN_ANOMALY":"266.4833","REV_AT_EPOCH":"5020","PERIAPSIS":"545.905","MEAN_ELEMENT_THEORY":"SGP4","SEMIMAJOR_AXIS":"6925.359","MEAN_MOTION_DDOT":"0.0000000000000","EPHEMERIS_TYPE":"0"},{"PERIOD":"95.593","RCS_SIZE":"LARGE","INCLINATION":"53.0544","APOAPSIS":"548.667","FILE":"3118116","OBJECT_ID":"2020-074X","BSTAR":"-0.00000436220000","LAUNCH_DATE":"2020-10-24","MEAN_MOTION_DOT":"-0.00000347","COUNTRY_CODE":"US","CLASSIFICATION_TYPE":"U","MEAN_MOTION":"15.06393499","DECAY_DATE":null,"NORAD_CAT_ID":"46760","TLE_LINE1":"1 46760U 20074X   21260.67370053 -.00000347  00000-0 -43622-5 0  9996","OBJECT_TYPE":"PAYLOAD","OBJECT_NAME":"STARLINK-1896","EPOCH":"2021-09-17T16:10:07.725792","RA_OF_ASC_NODE":"112.0120","TIME_SYSTEM":"UTC","ARG_OF_PERICENTER":"86.7674","GP_ID":"184912573","CENTER_NAME":"EARTH","TLE_LINE2":"2 46760  53.0544 112.0120 0002070  86.7674 273.3552 15.06393499 50180","REF_FRAME":"TEME","SITE":"AFETR","ELEMENT_SET_NO":"999","MEAN_ANOMALY":"273.3552","ECCENTRICITY":"0.00020700","REV_AT_EPOCH":"5018","MEAN_ELEMENT_THEORY":"SGP4","PERIAPSIS":"545.800","SEMIMAJOR_AXIS":"6925.368","MEAN_MOTION_DDOT":"0.0000000000000","EPHEMERIS_TYPE":"0"},{"INCLINATION":"53.0538","RCS_SIZE":"LARGE","PERIOD":"93.375","APOAPSIS":"440.710","LAUNCH_DATE":"2020-10-24","BSTAR":"0.00005243200000","FILE":"3118116","OBJECT_ID":"2020-074Z","MEAN_MOTION_DOT":"0.00001871","COUNTRY_CODE":"US","MEAN_MOTION":"15.42163410","CLASSIFICATION_TYPE":"U","OBJECT_TYPE":"PAYLOAD","TLE_LINE1":"1 46762U 20074Z   21260.86902431  .00001871  00000-0  52432-4 0  9999","NORAD_CAT_ID":"46762","DECAY_DATE":null,"TIME_SYSTEM":"UTC","RA_OF_ASC_NODE":"100.2680","EPOCH":"2021-09-17T20:51:23.700384","OBJECT_NAME":"STARLINK-1901","ARG_OF_PERICENTER":"66.8336","CENTER_NAME":"EARTH","GP_ID":"184912824","SITE":"AFETR","REF_FRAME":"TEME","TLE_LINE2":"2 46762  53.0538 100.2680 0001441  66.8336 293.2820 15.42163410 50367","MEAN_ANOMALY":"293.2820","ECCENTRICITY":"0.00014410","ELEMENT_SET_NO":"999","PERIAPSIS":"438.745","MEAN_ELEMENT_THEORY":"SGP4","REV_AT_EPOCH":"5036","SEMIMAJOR_AXIS":"6817.863","MEAN_MOTION_DDOT":"0.0000000000000","EPHEMERIS_TYPE":"0"},{"ARG_OF_PERICENTER":"84.6104","RA_OF_ASC_NODE":"111.0483","TIME_SYSTEM":"UTC","OBJECT_NAME":"STARLINK-1902","EPOCH":"2021-09-17T21:12:39.612384","SITE":"AFETR","TLE_LINE2":"2 46763  53.0546 111.0483 0002237  84.6104 275.5140 15.06394747 50214","REF_FRAME":"TEME","GP_ID":"184911572","CENTER_NAME":"EARTH","MEAN_ELEMENT_THEORY":"SGP4","PERIAPSIS":"545.680","REV_AT_EPOCH":"5021","ECCENTRICITY":"0.00022370","MEAN_ANOMALY":"275.5140","ELEMENT_SET_NO":"999","EPHEMERIS_TYPE":"0","MEAN_MOTION_DDOT":"0.0000000000000","SEMIMAJOR_AXIS":"6925.365","APOAPSIS":"548.779","INCLINATION":"53.0546","RCS_SIZE":"LARGE","PERIOD":"95.592","MEAN_MOTION_DOT":"-0.00000540","LAUNCH_DATE":"2020-10-24","FILE":"3118116","BSTAR":"-0.00001736600000","OBJECT_ID":"2020-074AA","MEAN_MOTION":"15.06394747","CLASSIFICATION_TYPE":"U","COUNTRY_CODE":"US","TLE_LINE1":"1 46763U 20074AA  21260.88379181 -.00000540  00000-0 -17366-4 0  9993","OBJECT_TYPE":"PAYLOAD","DECAY_DATE":null,"NORAD_CAT_ID":"46763"},{"SEMIMAJOR_AXIS":"6925.374","MEAN_MOTION_DDOT":"0.0000000000000","EPHEMERIS_TYPE":"0","ELEMENT_SET_NO":"999","MEAN_ANOMALY":"275.0519","ECCENTRICITY":"0.00020670","REV_AT_EPOCH":"5021","PERIAPSIS":"545.807","MEAN_ELEMENT_THEORY":"SGP4","CENTER_NAME":"EARTH","GP_ID":"184911822","REF_FRAME":"TEME","TLE_LINE2":"2 46764  53.0528 111.1444 0002067  85.0705 275.0519 15.06391817 50216","SITE":"AFETR","EPOCH":"2021-09-17T20:46:07.989600","OBJECT_NAME":"STARLINK-1903","RA_OF_ASC_NODE":"111.1444","TIME_SYSTEM":"UTC","ARG_OF_PERICENTER":"85.0705","NORAD_CAT_ID":"46764","DECAY_DATE":null,"OBJECT_TYPE":"PAYLOAD","TLE_LINE1":"1 46764U 20074AB  21260.86537025  .00000910  00000-0  80020-4 0  9991","COUNTRY_CODE":"US","CLASSIFICATION_TYPE":"U","MEAN_MOTION":"15.06391817","OBJECT_ID":"2020-074AB","FILE":"3118116","BSTAR":"0.00008002000000","LAUNCH_DATE":"2020-10-24","MEAN_MOTION_DOT":"0.00000910","RCS_SIZE":"LARGE","PERIOD":"95.593","INCLINATION":"53.0528","APOAPSIS":"548.670"},{"MEAN_MOTION_DOT":"0.00000826","OBJECT_ID":"2020-074AC","FILE":"3118116","BSTAR":"0.00007437800000","LAUNCH_DATE":"2020-10-24","APOAPSIS":"548.716","RCS_SIZE":"LARGE","PERIOD":"95.592","INCLINATION":"53.0564","NORAD_CAT_ID":"46765","DECAY_DATE":null,"OBJECT_TYPE":"PAYLOAD","TLE_LINE1":"1 46765U 20074AC  21260.85431578  .00000826  00000-0  74378-4 0  9992","CLASSIFICATION_TYPE":"U","MEAN_MOTION":"15.06396507","COUNTRY_CODE":"US","REF_FRAME":"TEME","TLE_LINE2":"2 46765  53.0564 111.1812 0002154  81.6193 278.5040 15.06396507 50203","SITE":"AFETR","CENTER_NAME":"EARTH","GP_ID":"184913073","ARG_OF_PERICENTER":"81.6193","EPOCH":"2021-09-17T20:30:12.883392","OBJECT_NAME":"STARLINK-1906","RA_OF_ASC_NODE":"111.1812","TIME_SYSTEM":"UTC","EPHEMERIS_TYPE":"0","MEAN_MOTION_DDOT":"0.0000000000000","SEMIMAJOR_AXIS":"6925.359","REV_AT_EPOCH":"5020","PERIAPSIS":"545.733","MEAN_ELEMENT_THEORY":"SGP4","ELEMENT_SET_NO":"999","ECCENTRICITY":"0.00021540","MEAN_ANOMALY":"278.5040"},{"PERIOD":"95.593","RCS_SIZE":"LARGE","INCLINATION":"53.0548","APOAPSIS":"548.648","BSTAR":"-0.00003764100000","FILE":"3118116","OBJECT_ID":"2020-074AD","LAUNCH_DATE":"2020-10-24","MEAN_MOTION_DOT":"-0.00000842","COUNTRY_CODE":"US","CLASSIFICATION_TYPE":"U","MEAN_MOTION":"15.06391886","DECAY_DATE":null,"NORAD_CAT_ID":"46766","TLE_LINE1":"1 46766U 20074AD  21260.84693720 -.00000842  00000-0 -37641-4 0  9993","OBJECT_TYPE":"PAYLOAD","OBJECT_NAME":"STARLINK-1916","EPOCH":"2021-09-17T20:19:35.374080","TIME_SYSTEM":"UTC","RA_OF_ASC_NODE":"111.2379","ARG_OF_PERICENTER":"83.5761","GP_ID":"184913324","CENTER_NAME":"EARTH","TLE_LINE2":"2 46766  53.0548 111.2379 0002036  83.5761 276.5460 15.06391886 50216","REF_FRAME":"TEME","SITE":"AFETR","ELEMENT_SET_NO":"999","ECCENTRICITY":"0.00020360","MEAN_ANOMALY":"276.5460","REV_AT_EPOCH":"5021","MEAN_ELEMENT_THEORY":"SGP4","PERIAPSIS":"545.828","SEMIMAJOR_AXIS":"6925.373","EPHEMERIS_TYPE":"0","MEAN_MOTION_DDOT":"0.0000000000000"},{"MEAN_MOTION_DDOT":"0.0000000000000","EPHEMERIS_TYPE":"0","SEMIMAJOR_AXIS":"6925.372","REV_AT_EPOCH":"5021","PERIAPSIS":"545.791","MEAN_ELEMENT_THEORY":"SGP4","ELEMENT_SET_NO":"999","ECCENTRICITY":"0.00020880","MEAN_ANOMALY":"273.0827","REF_FRAME":"TEME","TLE_LINE2":"2 46767  53.0529 111.0960 0002088  87.0400 273.0827 15.06392410 50219","SITE":"AFETR","CENTER_NAME":"EARTH","GP_ID":"184912072","ARG_OF_PERICENTER":"87.0400","EPOCH":"2021-09-17T21:02:03.113952","OBJECT_NAME":"STARLINK-1917","RA_OF_ASC_NODE":"111.0960","TIME_SYSTEM":"UTC","NORAD_CAT_ID":"46767","DECAY_DATE":null,"OBJECT_TYPE":"PAYLOAD","TLE_LINE1":"1 46767U 20074AE  21260.87642493 -.00001002  00000-0 -48352-4 0  9998","CLASSIFICATION_TYPE":"U","MEAN_MOTION":"15.06392410","COUNTRY_CODE":"US","MEAN_MOTION_DOT":"-0.00001002","OBJECT_ID":"2020-074AE","FILE":"3118116","BSTAR":"-0.00004835200000","LAUNCH_DATE":"2020-10-24","APOAPSIS":"548.683","PERIOD":"95.593","RCS_SIZE":"LARGE","INCLINATION":"53.0529"},{"SITE":"AFETR","TLE_LINE2":"2 46768  53.0549 111.0701 0002182  82.6288 277.4949 15.06397856 50217","REF_FRAME":"TEME","GP_ID":"184912322","CENTER_NAME":"EARTH","ARG_OF_PERICENTER":"82.6288","RA_OF_ASC_NODE":"111.0701","TIME_SYSTEM":"UTC","OBJECT_NAME":"STARLINK-1918","EPOCH":"2021-09-17T21:07:22.101888","EPHEMERIS_TYPE":"0","MEAN_MOTION_DDOT":"0.0000000000000","SEMIMAJOR_AXIS":"6925.355","MEAN_ELEMENT_THEORY":"SGP4","PERIAPSIS":"545.709","REV_AT_EPOCH":"5021","MEAN_ANOMALY":"277.4949","ECCENTRICITY":"0.00021820","ELEMENT_SET_NO":"999","MEAN_MOTION_DOT":"0.00000614","LAUNCH_DATE":"2020-10-24","FILE":"3118116","OBJECT_ID":"2020-074AF","BSTAR":"0.00006014100000","APOAPSIS":"548.731","INCLINATION":"53.0549","PERIOD":"95.592","RCS_SIZE":"LARGE","TLE_LINE1":"1 46768U 20074AF  21260.88011692  .00000614  00000-0  60141-4 0  9997","OBJECT_TYPE":"PAYLOAD","DECAY_DATE":null,"NORAD_CAT_ID":"46768","MEAN_MOTION":"15.06397856","CLASSIFICATION_TYPE":"U","COUNTRY_CODE":"US"},{"TLE_LINE1":"1 46769U 20074AG  21260.89854223 -.00000225  00000-0  37735-5 0  9997","OBJECT_TYPE":"PAYLOAD","DECAY_DATE":null,"NORAD_CAT_ID":"46769","MEAN_MOTION":"15.06392486","CLASSIFICATION_TYPE":"U","COUNTRY_CODE":"US","MEAN_MOTION_DOT":"-0.00000225","LAUNCH_DATE":"2020-10-24","FILE":"3118116","BSTAR":"0.00000377350000","OBJECT_ID":"2020-074AG","APOAPSIS":"548.597","INCLINATION":"53.0554","PERIOD":"95.593","RCS_SIZE":"LARGE","MEAN_MOTION_DDOT":"0.0000000000000","EPHEMERIS_TYPE":"0","SEMIMAJOR_AXIS":"6925.372","MEAN_ELEMENT_THEORY":"SGP4","PERIAPSIS":"545.876","REV_AT_EPOCH":"5021","ECCENTRICITY":"0.00019650","MEAN_ANOMALY":"281.0664","ELEMENT_SET_NO":"999","SITE":"AFETR","TLE_LINE2":"2 46769  53.0554 111.0069 0001965  79.0546 281.0664 15.06392486 50215","REF_FRAME":"TEME","GP_ID":"184912574","CENTER_NAME":"EARTH","ARG_OF_PERICENTER":"79.0546","TIME_SYSTEM":"UTC","RA_OF_ASC_NODE":"111.0069","OBJECT_NAME":"STARLINK-1919","EPOCH":"2021-09-17T21:33:54.048672"}];
